ALSAT 1                 
<<<<<<< .mine
1 27559U 02054A   13103.16183487  .00000677  00000-0  11962-3 0  7704
2 27559  97.7709 305.1571 0022678 211.1761 260.8202 14.70250152554758
=======
1 27559U 02054A   13109.48099301  .00000384  00000-0  71121-4 0  7750
2 27559  97.7700 311.1786 0023187 190.7756 227.6897 14.70254594555684
>>>>>>> .r6620
NIGERIASAT 1            
<<<<<<< .mine
1 27941U 03042C   13104.17055366  .00001118  00000-0  15498-3 0  7599
2 27941  97.7943 310.2317 0052692 148.9339 211.4965 14.78944897510838
=======
1 27941U 03042C   13110.12438547  .00000296  00000-0  46180-4 0  7787
2 27941  97.7954 316.0028 0053056 129.8378 230.7512 14.78952032511719
>>>>>>> .r6620
UK-DMC                  
<<<<<<< .mine
1 27942U 03042D   13103.17823628  .00000758  00000-0  11197-3 0  8595
2 27942  97.7816 311.2153 0064634 354.7418 117.7820 14.76690251510862
=======
1 27942U 03042D   13110.16427981  .00000501  00000-0  76678-4 0  8653
2 27942  97.7806 317.9509 0064100 331.8473 176.5295 14.76695336511896
>>>>>>> .r6620
BILSAT 1                
<<<<<<< .mine
1 27943U 03042E   13104.16742037  .00000309  00000-0  68200-4 0  5946
2 27943  97.7999 292.8601 0012431  42.4138 317.8011 14.63385081509798
=======
1 27943U 03042E   13110.18447845  .00000100  00000-0  27826-4 0  6134
2 27943  97.8019 298.5557 0012039  24.3335 335.8414 14.63387750510678
>>>>>>> .r6620
BEIJING 1               
<<<<<<< .mine
1 28890U 05043A   13104.22775832  .00000204  00000-0  51174-4 0  4751
2 28890  97.8619 320.6109 0014133 281.0703  78.8891 14.60460946397788
=======
1 28890U 05043A   13110.18834479  .00000092  00000-0  28023-4 0  4949
2 28890  97.8621 326.2700 0014153 260.4548  99.5038 14.60463093398656
>>>>>>> .r6620
HJ-1A                   
<<<<<<< .mine
1 33320U 08041A   13104.19539991  .00000826  00000-0  13046-3 0   869
2 33320  97.8249 169.4164 0025891 254.5934 105.2434 14.74710474247843
=======
1 33320U 08041A   13110.16628580  .00000632  00000-0  10145-3 0  1050
2 33320  97.8233 175.1881 0026071 234.4238 125.4548 14.74719394248729
>>>>>>> .r6620
HJ-1B                   
<<<<<<< .mine
1 33321U 08041B   13104.16422208  .00001005  00000-0  15645-3 0  1463
2 33321  97.8275 169.7110 0035625 272.8305  86.8834 14.74712163247821
=======
1 33321U 08041B   13110.13509808  .00000749  00000-0  11854-3 0  1641
2 33321  97.8262 175.4843 0035617 252.8457 106.8836 14.74721336248706
>>>>>>> .r6620
YAOGAN 4                
<<<<<<< .mine
1 33446U 08061A   13104.15804144  .00000766  00000-0  12169-3 0  8430
2 33446  97.7449 161.2916 0016736 204.7501 155.2911 14.74667738235108
=======
1 33446U 08061A   13110.19697401  .00000427  00000-0  71038-4 0  8623
2 33446  97.7438 167.0697 0017153 184.8901 175.2163 14.74673465235994
>>>>>>> .r6620
YAOGAN 5                
<<<<<<< .mine
1 33456U 08064A   13104.11959405  .00022113  00000-0  48790-3 0  8508
2 33456  97.2197 178.2297 0009235  93.4993 354.0077 15.43859894241773
=======
1 33456U 08064A   13110.14647883  .00014683  00000-0  32291-3 0  8683
2 33456  97.2184 184.2129 0008653  75.7872   8.6901 15.44047919242702
>>>>>>> .r6620
DEIMOS-1                
<<<<<<< .mine
1 35681U 09041A   13104.13197839  .00000529  00000-0  96470-4 0  1119
2 35681  98.0091   4.0481 0001285 112.9735 247.1608 14.69910463198945
=======
1 35681U 09041A   13110.19040674  .00000238  00000-0  47798-4 0  1303
2 35681  98.0079   9.9943 0001397 107.4317 252.7029 14.69914050199831
>>>>>>> .r6620
UK-DMC 2                
<<<<<<< .mine
1 35683U 09041C   13104.16997236  .00000451  00000-0  83313-4 0  1322
2 35683  98.0098   3.1746 0001019  77.8932 282.2391 14.69953316198876
RISAT 1                 
1 38248U 12017A   13104.15891068  .00002539  00000-0  16480-3 0   984
2 38248  97.5944 111.6466 0000546 116.6909 314.8348 15.08964948 53268
=======
1 35683U 09041C   13110.16015291  .00000232  00000-0  46824-4 0  1515
2 35683  98.0081   9.0547 0000965  73.4811 286.6510 14.69957298199751
RISAT 1                 
1 38248U 12017A   13110.13010310  .00000380  00000-0  28088-4 0  1163
2 38248  97.5937 117.5590 0000923 124.7729 322.4614 15.08904578 54166
>>>>>>> .r6620
